KUIPER-00044            
1 64505U 25134F   25282.14571954 -.00030410  00000+0 -39652-2 0  9996
2 64505  51.8984 196.7213 0013578 130.5690 229.6457 14.79993209 17448
KUIPER-00046            
1 64506U 25134G   25282.14371561  .00006895  00000+0  94108-3 0  9995
2 64506  51.8989 193.1389 0012681 140.1212 220.0684 14.79508851 17497
KUIPER-00047            
1 64507U 25134H   25282.25002315 -.00580099  00000+0 -25681-1 0  9999
2 64507  51.8669 172.2045 0010883 150.3419 126.5547 15.23313843  5573
KUIPER-00048            
1 64508U 25134J   25282.12701178 -.00084920  00000+0 -34284-2 0  9991
2 64508  51.8763 171.4479 0004440 187.8582 172.2331 15.24530531 17791
KUIPER-00049            
1 64509U 25134K   25282.25002315 -.00006469  00000+0 -73473-3 0  9999
2 64509  51.8960 178.7733 0005508 111.8349 303.3180 14.84440078  5155
KUIPER-00050            
1 64510U 25134L   25282.11643169  .00008201  00000+0  75218-3 0  9997
2 64510  51.8902 180.1771 0005873 160.5613 199.5581 14.95620236 17670
KUIPER-00051            
1 64511U 25134M   25281.13751189 -.00357940  00000+0 -34815-1 0  9996
2 64511  51.8944 181.7470 0004933 132.4610 227.6777 14.94139203 17567
KUIPER-00052            
1 64512U 25134N   25282.10325019  .00159706  00000+0  18777-2 0  9992
2 64512  51.8704 160.8884 0008068 162.5397 197.5879 15.60359715 17933
