<?xml version="1.0" encoding="UTF-8"?>
<ndm xmlns:xsi="http://www.w3.org/2001/XMLSchema-instance" xsi:noNamespaceSchemaLocation="https://sanaregistry.org/r/ndmxml_unqualified/ndmxml-2.0.0-master-2.0.xsd">
<omm id="CCSDS_OMM_VERS" version="2.0">
<header><CREATION_DATE/><ORIGINATOR/></header><body><segment><metadata><OBJECT_NAME>KUIPER-00044</OBJECT_NAME><OBJECT_ID>2025-134F</OBJECT_ID><CENTER_NAME>EARTH</CENTER_NAME><REF_FRAME>TEME</REF_FRAME><TIME_SYSTEM>UTC</TIME_SYSTEM><MEAN_ELEMENT_THEORY>SGP4</MEAN_ELEMENT_THEORY></metadata><data><meanElements><EPOCH>2025-10-09T03:29:50.168256</EPOCH><MEAN_MOTION>14.79993209</MEAN_MOTION><ECCENTRICITY>.0013578</ECCENTRICITY><INCLINATION>51.8984</INCLINATION><RA_OF_ASC_NODE>196.7213</RA_OF_ASC_NODE><ARG_OF_PERICENTER>130.5690</ARG_OF_PERICENTER><MEAN_ANOMALY>229.6457</MEAN_ANOMALY></meanElements><tleParameters><EPHEMERIS_TYPE>0</EPHEMERIS_TYPE><CLASSIFICATION_TYPE>U</CLASSIFICATION_TYPE><NORAD_CAT_ID>64505</NORAD_CAT_ID><ELEMENT_SET_NO>999</ELEMENT_SET_NO><REV_AT_EPOCH>1744</REV_AT_EPOCH><BSTAR>-.39652E-2</BSTAR><MEAN_MOTION_DOT>-.3041E-3</MEAN_MOTION_DOT><MEAN_MOTION_DDOT>0</MEAN_MOTION_DDOT></tleParameters></data></segment></body></omm>
<omm id="CCSDS_OMM_VERS" version="2.0">
<header><CREATION_DATE/><ORIGINATOR/></header><body><segment><metadata><OBJECT_NAME>KUIPER-00046</OBJECT_NAME><OBJECT_ID>2025-134G</OBJECT_ID><CENTER_NAME>EARTH</CENTER_NAME><REF_FRAME>TEME</REF_FRAME><TIME_SYSTEM>UTC</TIME_SYSTEM><MEAN_ELEMENT_THEORY>SGP4</MEAN_ELEMENT_THEORY></metadata><data><meanElements><EPOCH>2025-10-09T03:26:57.028704</EPOCH><MEAN_MOTION>14.79508851</MEAN_MOTION><ECCENTRICITY>.0012681</ECCENTRICITY><INCLINATION>51.8989</INCLINATION><RA_OF_ASC_NODE>193.1389</RA_OF_ASC_NODE><ARG_OF_PERICENTER>140.1212</ARG_OF_PERICENTER><MEAN_ANOMALY>220.0684</MEAN_ANOMALY></meanElements><tleParameters><EPHEMERIS_TYPE>0</EPHEMERIS_TYPE><CLASSIFICATION_TYPE>U</CLASSIFICATION_TYPE><NORAD_CAT_ID>64506</NORAD_CAT_ID><ELEMENT_SET_NO>999</ELEMENT_SET_NO><REV_AT_EPOCH>1749</REV_AT_EPOCH><BSTAR>.94108E-3</BSTAR><MEAN_MOTION_DOT>.6895E-4</MEAN_MOTION_DOT><MEAN_MOTION_DDOT>0</MEAN_MOTION_DDOT></tleParameters></data></segment></body></omm>
<omm id="CCSDS_OMM_VERS" version="2.0">
<header><CREATION_DATE/><ORIGINATOR/></header><body><segment><metadata><OBJECT_NAME>KUIPER-00047</OBJECT_NAME><OBJECT_ID>2025-134H</OBJECT_ID><CENTER_NAME>EARTH</CENTER_NAME><REF_FRAME>TEME</REF_FRAME><TIME_SYSTEM>UTC</TIME_SYSTEM><MEAN_ELEMENT_THEORY>SGP4</MEAN_ELEMENT_THEORY></metadata><data><meanElements><EPOCH>2025-10-09T06:00:02.000160</EPOCH><MEAN_MOTION>15.23313843</MEAN_MOTION><ECCENTRICITY>.0010883</ECCENTRICITY><INCLINATION>51.8669</INCLINATION><RA_OF_ASC_NODE>172.2045</RA_OF_ASC_NODE><ARG_OF_PERICENTER>150.3419</ARG_OF_PERICENTER><MEAN_ANOMALY>126.5547</MEAN_ANOMALY></meanElements><tleParameters><EPHEMERIS_TYPE>0</EPHEMERIS_TYPE><CLASSIFICATION_TYPE>U</CLASSIFICATION_TYPE><NORAD_CAT_ID>64507</NORAD_CAT_ID><ELEMENT_SET_NO>999</ELEMENT_SET_NO><REV_AT_EPOCH>557</REV_AT_EPOCH><BSTAR>-.25681E-1</BSTAR><MEAN_MOTION_DOT>-.580099E-2</MEAN_MOTION_DOT><MEAN_MOTION_DDOT>0</MEAN_MOTION_DDOT></tleParameters></data></segment></body></omm>
<omm id="CCSDS_OMM_VERS" version="2.0">
<header><CREATION_DATE/><ORIGINATOR/></header><body><segment><metadata><OBJECT_NAME>KUIPER-00048</OBJECT_NAME><OBJECT_ID>2025-134J</OBJECT_ID><CENTER_NAME>EARTH</CENTER_NAME><REF_FRAME>TEME</REF_FRAME><TIME_SYSTEM>UTC</TIME_SYSTEM><MEAN_ELEMENT_THEORY>SGP4</MEAN_ELEMENT_THEORY></metadata><data><meanElements><EPOCH>2025-10-09T03:02:53.817792</EPOCH><MEAN_MOTION>15.24530531</MEAN_MOTION><ECCENTRICITY>.000444</ECCENTRICITY><INCLINATION>51.8763</INCLINATION><RA_OF_ASC_NODE>171.4479</RA_OF_ASC_NODE><ARG_OF_PERICENTER>187.8582</ARG_OF_PERICENTER><MEAN_ANOMALY>172.2331</MEAN_ANOMALY></meanElements><tleParameters><EPHEMERIS_TYPE>0</EPHEMERIS_TYPE><CLASSIFICATION_TYPE>U</CLASSIFICATION_TYPE><NORAD_CAT_ID>64508</NORAD_CAT_ID><ELEMENT_SET_NO>999</ELEMENT_SET_NO><REV_AT_EPOCH>1779</REV_AT_EPOCH><BSTAR>-.34284E-2</BSTAR><MEAN_MOTION_DOT>-.8492E-3</MEAN_MOTION_DOT><MEAN_MOTION_DDOT>0</MEAN_MOTION_DDOT></tleParameters></data></segment></body></omm>
<omm id="CCSDS_OMM_VERS" version="2.0">
<header><CREATION_DATE/><ORIGINATOR/></header><body><segment><metadata><OBJECT_NAME>KUIPER-00049</OBJECT_NAME><OBJECT_ID>2025-134K</OBJECT_ID><CENTER_NAME>EARTH</CENTER_NAME><REF_FRAME>TEME</REF_FRAME><TIME_SYSTEM>UTC</TIME_SYSTEM><MEAN_ELEMENT_THEORY>SGP4</MEAN_ELEMENT_THEORY></metadata><data><meanElements><EPOCH>2025-10-09T06:00:02.000160</EPOCH><MEAN_MOTION>14.84440078</MEAN_MOTION><ECCENTRICITY>.0005508</ECCENTRICITY><INCLINATION>51.8960</INCLINATION><RA_OF_ASC_NODE>178.7733</RA_OF_ASC_NODE><ARG_OF_PERICENTER>111.8349</ARG_OF_PERICENTER><MEAN_ANOMALY>303.3180</MEAN_ANOMALY></meanElements><tleParameters><EPHEMERIS_TYPE>0</EPHEMERIS_TYPE><CLASSIFICATION_TYPE>U</CLASSIFICATION_TYPE><NORAD_CAT_ID>64509</NORAD_CAT_ID><ELEMENT_SET_NO>999</ELEMENT_SET_NO><REV_AT_EPOCH>515</REV_AT_EPOCH><BSTAR>-.73473E-3</BSTAR><MEAN_MOTION_DOT>-.6469E-4</MEAN_MOTION_DOT><MEAN_MOTION_DDOT>0</MEAN_MOTION_DDOT></tleParameters></data></segment></body></omm>
<omm id="CCSDS_OMM_VERS" version="2.0">
<header><CREATION_DATE/><ORIGINATOR/></header><body><segment><metadata><OBJECT_NAME>KUIPER-00050</OBJECT_NAME><OBJECT_ID>2025-134L</OBJECT_ID><CENTER_NAME>EARTH</CENTER_NAME><REF_FRAME>TEME</REF_FRAME><TIME_SYSTEM>UTC</TIME_SYSTEM><MEAN_ELEMENT_THEORY>SGP4</MEAN_ELEMENT_THEORY></metadata><data><meanElements><EPOCH>2025-10-09T02:47:39.698016</EPOCH><MEAN_MOTION>14.95620236</MEAN_MOTION><ECCENTRICITY>.0005873</ECCENTRICITY><INCLINATION>51.8902</INCLINATION><RA_OF_ASC_NODE>180.1771</RA_OF_ASC_NODE><ARG_OF_PERICENTER>160.5613</ARG_OF_PERICENTER><MEAN_ANOMALY>199.5581</MEAN_ANOMALY></meanElements><tleParameters><EPHEMERIS_TYPE>0</EPHEMERIS_TYPE><CLASSIFICATION_TYPE>U</CLASSIFICATION_TYPE><NORAD_CAT_ID>64510</NORAD_CAT_ID><ELEMENT_SET_NO>999</ELEMENT_SET_NO><REV_AT_EPOCH>1767</REV_AT_EPOCH><BSTAR>.75218E-3</BSTAR><MEAN_MOTION_DOT>.8201E-4</MEAN_MOTION_DOT><MEAN_MOTION_DDOT>0</MEAN_MOTION_DDOT></tleParameters></data></segment></body></omm>
<omm id="CCSDS_OMM_VERS" version="2.0">
<header><CREATION_DATE/><ORIGINATOR/></header><body><segment><metadata><OBJECT_NAME>KUIPER-00051</OBJECT_NAME><OBJECT_ID>2025-134M</OBJECT_ID><CENTER_NAME>EARTH</CENTER_NAME><REF_FRAME>TEME</REF_FRAME><TIME_SYSTEM>UTC</TIME_SYSTEM><MEAN_ELEMENT_THEORY>SGP4</MEAN_ELEMENT_THEORY></metadata><data><meanElements><EPOCH>2025-10-08T03:18:01.027296</EPOCH><MEAN_MOTION>14.94139203</MEAN_MOTION><ECCENTRICITY>.00049335</ECCENTRICITY><INCLINATION>51.8944</INCLINATION><RA_OF_ASC_NODE>181.7470</RA_OF_ASC_NODE><ARG_OF_PERICENTER>132.4610</ARG_OF_PERICENTER><MEAN_ANOMALY>227.6777</MEAN_ANOMALY></meanElements><tleParameters><EPHEMERIS_TYPE>0</EPHEMERIS_TYPE><CLASSIFICATION_TYPE>U</CLASSIFICATION_TYPE><NORAD_CAT_ID>64511</NORAD_CAT_ID><ELEMENT_SET_NO>999</ELEMENT_SET_NO><REV_AT_EPOCH>1756</REV_AT_EPOCH><BSTAR>-.34815195E-1</BSTAR><MEAN_MOTION_DOT>-.35794E-2</MEAN_MOTION_DOT><MEAN_MOTION_DDOT>0</MEAN_MOTION_DDOT></tleParameters></data></segment></body></omm>
<omm id="CCSDS_OMM_VERS" version="2.0">
<header><CREATION_DATE/><ORIGINATOR/></header><body><segment><metadata><OBJECT_NAME>KUIPER-00052</OBJECT_NAME><OBJECT_ID>2025-134N</OBJECT_ID><CENTER_NAME>EARTH</CENTER_NAME><REF_FRAME>TEME</REF_FRAME><TIME_SYSTEM>UTC</TIME_SYSTEM><MEAN_ELEMENT_THEORY>SGP4</MEAN_ELEMENT_THEORY></metadata><data><meanElements><EPOCH>2025-10-09T02:28:40.816416</EPOCH><MEAN_MOTION>15.60359715</MEAN_MOTION><ECCENTRICITY>.0008068</ECCENTRICITY><INCLINATION>51.8704</INCLINATION><RA_OF_ASC_NODE>160.8884</RA_OF_ASC_NODE><ARG_OF_PERICENTER>162.5397</ARG_OF_PERICENTER><MEAN_ANOMALY>197.5879</MEAN_ANOMALY></meanElements><tleParameters><EPHEMERIS_TYPE>0</EPHEMERIS_TYPE><CLASSIFICATION_TYPE>U</CLASSIFICATION_TYPE><NORAD_CAT_ID>64512</NORAD_CAT_ID><ELEMENT_SET_NO>999</ELEMENT_SET_NO><REV_AT_EPOCH>1793</REV_AT_EPOCH><BSTAR>.18777E-2</BSTAR><MEAN_MOTION_DOT>.159706E-2</MEAN_MOTION_DOT><MEAN_MOTION_DDOT>0</MEAN_MOTION_DDOT></tleParameters></data></segment></body></omm>

</ndm>
